[{"OBJECT_NAME":"STARLINK-3692","OBJECT_ID":"2022-025C","EPOCH":"2026-03-09T04:09:32.813280","MEAN_MOTION":15.3018251,"ECCENTRICITY":0.00014023,"INCLINATION":53.1631,"RA_OF_ASC_NODE":15.9414,"ARG_OF_PERICENTER":86.2996,"MEAN_ANOMALY":273.8165,"EPHEMERIS_TYPE":0,"CLASSIFICATION_TYPE":"U","NORAD_CAT_ID":51958,"ELEMENT_SET_NO":999,"REV_AT_EPOCH":22109,"BSTAR":6.68828e-7,"MEAN_MOTION_DOT":-3.39e-6,"MEAN_MOTION_DDOT":0},{"OBJECT_NAME":"SCS-01 H","OBJECT_ID":"2025-100H","EPOCH":"2026-03-09T23:19:05.376864","MEAN_MOTION":15.31767757,"ECCENTRICITY":0.00071581,"INCLINATION":97.3749,"RA_OF_ASC_NODE":145.8085,"ARG_OF_PERICENTER":277.8492,"MEAN_ANOMALY":82.1937,"EPHEMERIS_TYPE":0,"CLASSIFICATION_TYPE":"U","NORAD_CAT_ID":63989,"ELEMENT_SET_NO":999,"REV_AT_EPOCH":4566,"BSTAR":0.0011436254,"MEAN_MOTION_DOT":0.00035149,"MEAN_MOTION_DDOT":0}]
